FENGYUN 1C DEB          
1 31495U 99025BWJ 17345.51409472  .00000531  00000-0  29360-3 0  9991
2 31495  99.0418  90.4281 0034496 202.0304 157.9387 14.15544350219268
